MYSTERY1      
1 00001U 16069A   17122.36285815 -.00000006  00000-0  00000-0 0  9997
2 00001  54.5802 193.6374 0005506 268.2188  91.7818  1.70473984  2747
MYSTERY2             
1 00002U 15037B   17122.74809601 -.00000066  00000-0  00000-0 0  9991
2 00002  55.4243  55.0756 0009551 292.3624  99.1393  1.86237218 12055
MYSTERY3       
1 00003U 08046B   17120.73452116 -.00000010  00000-0  00000-0 0  9995
2 00003  65.4194  66.6123 0016154 187.6639 355.0262  2.13102493 66906
MYSTERY4      
1 00004U 15017B   17122.61038077 -.00000032  00000-0  00000-0 0  9993
2 00004  55.5896  73.2949 0001096 286.6688  73.2853  1.70475083 13054
MYSTERY5       
1 00005U 14032A   17122.58607873 -.00000019  00000-0  00000-0 0  9993
2 00005  65.2119  66.1705 0005284 231.3656 299.3693  2.13102900 22431
MYSTERY6      
1 00006U 15079B   17122.28906196 -.00000005  00000-0  00000-0 0  9990
2 00006  54.9187 192.9896 0004702 276.2263  83.7847  1.70474138  8548
MYSTERY7       
1 00007U 09070A   17122.73840306  .00000002  00000-0  00000-0 0  9994
2 00007  64.1783 185.1303 0005235 305.9127 133.5375  2.13102906 57458
MYSTERY8     
1 00008U 16032A   17122.74514656 -.00000003  00000-0  00000-0 0  9996
2 00008  64.6532 306.6845 0009610 216.0063 149.4850  2.13101664  7218
MYSTERY9      
1 00009U 15045B   17121.89691588 -.00000040  00000-0  00000-0 0  9997
2 00009  57.0468 313.3843 0002128  45.9698 314.0458  1.70474811 10214